{
    "links": {
        "self": "http://www.neowsapp.com/rest/v1/neo/3672962?api_key=iIulBulltgU6a56xZRHN4H3l9WmuAYTsLGpBGhQ2"
    },
    "id": "3672962",
    "neo_reference_id": "3672962",
    "name": "(2014 KO84)",
    "designation": "2014 KO84",
    "nasa_jpl_url": "http://ssd.jpl.nasa.gov/sbdb.cgi?sstr=3672962",
    "absolute_magnitude_h": 23.5,
    "estimated_diameter": {
        "kilometers": {
            "estimated_diameter_min": 0.0530340723,
            "estimated_diameter_max": 0.1185877909
        },
        "meters": {
            "estimated_diameter_min": 53.0340723319,
            "estimated_diameter_max": 118.5877908577
        },
        "miles": {
            "estimated_diameter_min": 0.0329538346,
            "estimated_diameter_max": 0.0736870142
        },
        "feet": {
            "estimated_diameter_min": 173.9963058693,
            "estimated_diameter_max": 389.0675677576
        }
    },
    "is_potentially_hazardous_asteroid": false,
    "close_approach_data": [
        {
            "close_approach_date": "2014-05-27",
            "close_approach_date_full": "2014-May-27 10:20",
            "epoch_date_close_approach": 1401186000000,
            "relative_velocity": {
                "kilometers_per_second": "3.5226550678",
                "kilometers_per_hour": "12681.5582439822",
                "miles_per_hour": "7879.827121101"
            },
            "miss_distance": {
                "astronomical": "0.1911284733",
                "lunar": "74.3489761137",
                "kilometers": "28592412.502031871",
                "miles": "17766501.2851509798"
            },
            "orbiting_body": "Earth"
        }
    ],
    "orbital_data": {
        "orbit_id": "8",
        "orbit_determination_date": "2017-04-06 08:40:15",
        "first_observation_date": "2014-05-27",
        "last_observation_date": "2014-06-20",
        "data_arc_in_days": 24,
        "observations_used": 22,
        "orbit_uncertainty": "7",
        "minimum_orbit_intersection": ".190466",
        "jupiter_tisserand_invariant": "3.683",
        "epoch_osculation": "2459000.5",
        "eccentricity": ".4165551532894297",
        "semi_major_axis": "2.042329652927728",
        "inclination": "4.612854744586085",
        "ascending_node_longitude": "197.1293869057642",
        "orbital_period": "1066.073606469028",
        "perihelion_distance": "1.19158671128487",
        "perihelion_argument": "50.56351965010289",
        "aphelion_distance": "2.893072594570585",
        "perihelion_time": "2458939.085533975229",
        "mean_anomaly": "20.73891299320881",
        "mean_motion": ".3376877523423227",
        "equinox": "J2000",
        "orbit_class": {
            "orbit_class_type": "AMO",
            "orbit_class_description": "Near-Earth asteroid orbits similar to that of 1221 Amor",
            "orbit_class_range": "1.017 AU < q (perihelion) < 1.3 AU"
        }
    },
    "is_sentry_object": false
}